{
  "type": "FeatureCollection",
  "features": [
    {
      "type": "Feature",
      "properties": {
        "norad_id": 35052,
        "name": "IRIDIUM 33 DEB",
        "group": "iridium-33-debris",
        "lat": -53.46757911150914,
        "lon": 16.77338831827923,
        "alt_km": 778.7410073708834,
        "timestamp": "2025-12-09T18:55:17.617084+00:00",
        "meta_object_name": "IRIDIUM 33 DEB",
        "meta_object_id": "1997-051NY",
        "meta_epoch": "2025-12-09T09:09:14.071104",
        "meta_mean_motion": 14.38486944,
        "meta_eccentricity": 0.00136896,
        "meta_inclination": 86.3313,
        "meta_ra_of_asc_node": 21.9161,
        "meta_arg_of_pericenter": 94.3861,
        "meta_mean_anomaly": 265.8902,
        "meta_ephemeris_type": 0,
        "meta_classification_type": "U",
        "meta_norad_cat_id": 35052,
        "meta_element_set_no": 999,
        "meta_rev_at_epoch": 87227,
        "meta_bstar": 0.00032817841,
        "meta_mean_motion_dot": 1.023e-05,
        "meta_mean_motion_ddot": 0,
        "tle_line1": "1 35052U 97051NY  25343.38141286  .00001023  00000+0  32818-3 0  9997",
        "tle_line2": "2 35052  86.3313  21.9161 0013689  94.3861 265.8902 14.38486944872278"
      },
      "geometry": {
        "type": "Point",
        "coordinates": [
          16.77338831827923,
          -53.46757911150914
        ]
      }
    },
    {
      "type": "Feature",
      "properties": {
        "norad_id": 35080,
        "name": "IRIDIUM 33 DEB",
        "group": "iridium-33-debris",
        "lat": -19.904410643794012,
        "lon": 52.40968566250844,
        "alt_km": 654.8149811447074,
        "timestamp": "2025-12-09T18:55:17.617094+00:00",
        "meta_object_name": "IRIDIUM 33 DEB",
        "meta_object_id": "1997-051PF",
        "meta_epoch": "2025-12-09T10:55:41.938464",
        "meta_mean_motion": 14.85397119,
        "meta_eccentricity": 0.00616418,
        "meta_inclination": 86.2064,
        "meta_ra_of_asc_node": 53.9454,
        "meta_arg_of_pericenter": 191.0106,
        "meta_mean_anomaly": 168.9774,
        "meta_ephemeris_type": 0,
        "meta_classification_type": "U",
        "meta_norad_cat_id": 35080,
        "meta_element_set_no": 999,
        "meta_rev_at_epoch": 69639,
        "meta_bstar": 0.010046072,
        "meta_mean_motion_dot": 0.00090518,
        "meta_mean_motion_ddot": 0,
        "tle_line1": "1 35080U 97051PF  25343.45534651  .00090518  00000+0  10046-1 0  9992",
        "tle_line2": "2 35080  86.2064  53.9454 0061641 191.0106 168.9774 14.85397119696393"
      },
      "geometry": {
        "type": "Point",
        "coordinates": [
          52.40968566250844,
          -19.904410643794012
        ]
      }
    },
    {
      "type": "Feature",
      "properties": {
        "norad_id": 35297,
        "name": "IRIDIUM 33 DEB",
        "group": "iridium-33-debris",
        "lat": 36.97987470574375,
        "lon": -118.70722861049752,
        "alt_km": 726.9478350283216,
        "timestamp": "2025-12-09T18:55:17.617104+00:00",
        "meta_object_name": "IRIDIUM 33 DEB",
        "meta_object_id": "1997-051PM",
        "meta_epoch": "2025-12-06T00:31:29.302752",
        "meta_mean_motion": 14.45108459,
        "meta_eccentricity": 0.00170329,
        "meta_inclination": 86.3867,
        "meta_ra_of_asc_node": 65.6268,
        "meta_arg_of_pericenter": 161.2449,
        "meta_mean_anomaly": 198.9384,
        "meta_ephemeris_type": 0,
        "meta_classification_type": "U",
        "meta_norad_cat_id": 35297,
        "meta_element_set_no": 999,
        "meta_rev_at_epoch": 70329,
        "meta_bstar": 0.0012426888,
        "meta_mean_motion_dot": 4.371e-05,
        "meta_mean_motion_ddot": 0,
        "tle_line1": "1 35297U 97051PM  25340.02186693  .00004371  00000+0  12427-2 0  9999",
        "tle_line2": "2 35297  86.3867  65.6268 0017032 161.2449 198.9384 14.45108459703293"
      },
      "geometry": {
        "type": "Point",
        "coordinates": [
          -118.70722861049752,
          36.97987470574375
        ]
      }
    },
    {
      "type": "Feature",
      "properties": {
        "norad_id": 35299,
        "name": "IRIDIUM 33 DEB",
        "group": "iridium-33-debris",
        "lat": 58.37901055645901,
        "lon": -151.5810196424636,
        "alt_km": 708.7615082793927,
        "timestamp": "2025-12-09T18:55:17.617114+00:00",
        "meta_object_name": "IRIDIUM 33 DEB",
        "meta_object_id": "1997-051PP",
        "meta_epoch": "2025-12-09T03:37:25.282848",
        "meta_mean_motion": 14.40832112,
        "meta_eccentricity": 0.00588898,
        "meta_inclination": 86.2882,
        "meta_ra_of_asc_node": 34.7485,
        "meta_arg_of_pericenter": 113.8076,
        "meta_mean_anomaly": 303.2931,
        "meta_ephemeris_type": 0,
        "meta_classification_type": "U",
        "meta_norad_cat_id": 35299,
        "meta_element_set_no": 999,
        "meta_rev_at_epoch": 86279,
        "meta_bstar": 0.00094086001,
        "meta_mean_motion_dot": 3.095e-05,
        "meta_mean_motion_ddot": 0,
        "tle_line1": "1 35299U 97051PP  25343.15098707  .00003095  00000+0  94086-3 0  9990",
        "tle_line2": "2 35299  86.2882  34.7485 0058889 113.8076 303.2931 14.40832112862798"
      },
      "geometry": {
        "type": "Point",
        "coordinates": [
          -151.5810196424636,
          58.37901055645901
        ]
      }
    },
    {
      "type": "Feature",
      "properties": {
        "norad_id": 35480,
        "name": "IRIDIUM 33 DEB",
        "group": "iridium-33-debris",
        "lat": 52.80030866014606,
        "lon": -158.621550859133,
        "alt_km": 710.7271771525238,
        "timestamp": "2025-12-09T18:55:17.617124+00:00",
        "meta_object_name": "IRIDIUM 33 DEB",
        "meta_object_id": "1997-051QA",
        "meta_epoch": "2025-12-09T13:22:09.093216",
        "meta_mean_motion": 14.49742586,
        "meta_eccentricity": 0.001578,
        "meta_inclination": 86.3576,
        "meta_ra_of_asc_node": 26.2927,
        "meta_arg_of_pericenter": 114.3096,
        "meta_mean_anomaly": 245.9758,
        "meta_ephemeris_type": 0,
        "meta_classification_type": "U",
        "meta_norad_cat_id": 35480,
        "meta_element_set_no": 999,
        "meta_rev_at_epoch": 86985,
        "meta_bstar": 0.00089573822,
        "meta_mean_motion_dot": 3.474e-05,
        "meta_mean_motion_ddot": 0,
        "tle_line1": "1 35480U 97051QA  25343.55704969  .00003474  00000+0  89574-3 0  9997",
        "tle_line2": "2 35480  86.3576  26.2927 0015780 114.3096 245.9758 14.49742586869856"
      },
      "geometry": {
        "type": "Point",
        "coordinates": [
          -158.621550859133,
          52.80030866014606
        ]
      }
    },
    {
      "type": "Feature",
      "properties": {
        "norad_id": 35484,
        "name": "IRIDIUM 33 DEB",
        "group": "iridium-33-debris",
        "lat": 45.00798079385727,
        "lon": 170.47542957470503,
        "alt_km": 552.1739236199019,
        "timestamp": "2025-12-09T18:55:17.617133+00:00",
        "meta_object_name": "IRIDIUM 33 DEB",
        "meta_object_id": "1997-051QE",
        "meta_epoch": "2025-12-09T07:06:09.545184",
        "meta_mean_motion": 14.98295123,
        "meta_eccentricity": 0.0023219,
        "meta_inclination": 86.3607,
        "meta_ra_of_asc_node": 354.3558,
        "meta_arg_of_pericenter": 136.4781,
        "meta_mean_anomaly": 223.8288,
        "meta_ephemeris_type": 0,
        "meta_classification_type": "U",
        "meta_norad_cat_id": 35484,
        "meta_element_set_no": 999,
        "meta_rev_at_epoch": 61964,
        "meta_bstar": 0.0033574,
        "meta_mean_motion_dot": 0.00040354,
        "meta_mean_motion_ddot": 0,
        "tle_line1": "1 35484U 97051QE  25343.29594381  .00040354  00000+0  33574-2 0  9993",
        "tle_line2": "2 35484  86.3607 354.3558 0023219 136.4781 223.8288 14.98295123619649"
      },
      "geometry": {
        "type": "Point",
        "coordinates": [
          170.47542957470503,
          45.00798079385727
        ]
      }
    },
    {
      "type": "Feature",
      "properties": {
        "norad_id": 35488,
        "name": "IRIDIUM 33 DEB",
        "group": "iridium-33-debris",
        "lat": 48.327536586782095,
        "lon": -53.62027711123953,
        "alt_km": 594.6942080731606,
        "timestamp": "2025-12-09T18:55:17.617143+00:00",
        "meta_object_name": "IRIDIUM 33 DEB",
        "meta_object_id": "1997-051QJ",
        "meta_epoch": "2025-12-08T21:39:05.105088",
        "meta_mean_motion": 14.8290127,
        "meta_eccentricity": 0.0030312,
        "meta_inclination": 86.3246,
        "meta_ra_of_asc_node": 302.6469,
        "meta_arg_of_pericenter": 55.0525,
        "meta_mean_anomaly": 305.3538,
        "meta_ephemeris_type": 0,
        "meta_classification_type": "U",
        "meta_norad_cat_id": 35488,
        "meta_element_set_no": 999,
        "meta_rev_at_epoch": 88209,
        "meta_bstar": 0.0019549,
        "meta_mean_motion_dot": 0.00016018,
        "meta_mean_motion_ddot": 0,
        "tle_line1": "1 35488U 97051QJ  25342.90214242  .00016018  00000+0  19549-2 0  9995",
        "tle_line2": "2 35488  86.3246 302.6469 0030312  55.0525 305.3538 14.82901270882098"
      },
      "geometry": {
        "type": "Point",
        "coordinates": [
          -53.62027711123953,
          48.327536586782095
        ]
      }
    }
  ]
}